# From MPEC 2022-WQ9
P/2022 R5 (PANSTARRS),e,15.2923,115.0425,240.5374,3.069958,0.1832337,0.19471780,209.3698,07/12.0/2025,2000,g 16.0,4.0
# From MPEC 2025-MC0
C/2022 R6 (PANSTARRS),h,08/26.2559/2025,57.0197,150.7850,319.9204,1.005055,6.565524,2000,5.0,4.0
# From MPEC 2023-HD1
P/2022 S1 (PANSTARRS),e,34.5666,136.0896,262.8475,6.408774,0.0607493,0.50759682,64.2731,07/12.0/2025,2000,g 15.1,4.0
# From MPEC 2022-VC5
C/2022 S3 (PANSTARRS),h,01/21.6171/2023,78.4801,157.2476,267.9881,1.000382,0.838817,2000,17.0,4.0
# From MPEC 2025-MC0
C/2022 S4 (Lemmon),e,101.2147,220.1787,268.5624,1408,0.0000186,0.99803884,0.0000,07/18.7865/2024,2000,g  8.0,4.0
# From MPEC 2023-HD1
C/2022 S5 (PANSTARRS),e,136.5101,214.8653,232.7983,20.51922,0.0106038,0.89386356,10.1500,07/12.0/2025,2000,g 16.3,4.0
# From MPEC 2024-O39
C/2022 T1 (Lemmon),h,02/17.4429/2024,22.5419,236.9152,324.2924,1.000381,3.444245,2000,9.0,4.0
# From MPEC 2025-N64
C/2022 U1 (Leonard),h,03/26.1043/2024,128.1478,72.5281,78.6140,1.000254,4.202269,2000,8.5,4.0
# From MPEC 2023-VM5
C/2022 U2 (ATLAS),e,48.2502,304.4020,148.0138,98.35126,0.0010105,0.98647969,0.0000,01/14.2732/2023,2000,g 16.0,4.0
# From MPC182880
C/2022 U3 (Bok),h,07/28.6603/2024,33.6617,272.7881,189.1339,1.000086,4.826883,2000,7.5,4.0
# From MPEC 2023-W26
C/2022 U4 (Bok),e,52.0535,132.9164,88.9842,2887,0.0000064,0.99899651,0.0000,08/03.6451/2023,2000,g 10.5,4.0
# From MPEC 2024-H50
C/2022 V2 (Lemmon),e,98.9024,332.8534,168.9551,36.64167,0.0044437,0.94366358,2.7469,07/12.0/2025,2000,g 12.0,4.0
# From MPEC 2023-CD7
P/2022 W1 (Rankin),e,13.4639,38.8302,17.9332,6.975594,0.0534974,0.51646051,55.0956,07/12.0/2025,2000,g 12.5,4.0
# From MPEC 2024-EF7
C/2022 W2 (ATLAS),e,63.5013,320.4354,123.3169,342.5850,0.0001554,0.99087823,0.0000,03/08.7333/2023,2000,g 11.5,4.0
# From MPEC 2024-C04
C/2022 W3 (Leonard),e,103.5823,132.3052,116.5113,277.8912,0.0002128,0.99497352,0.0000,06/22.8284/2023,2000,g 13.0,4.0
# From MPEC 2023-M14
C/2022 Y1 (Hogan),e,18.8559,285.8759,174.8859,12.61589,0.0219952,0.76532251,21.0561,07/12.0/2025,2000,g  9.0,4.0
# From MPEC 2023-TM6
C/2022 Y2 (Lemmon),e,165.8935,216.3781,105.4878,19.73300,0.0112438,0.87116611,9.4735,07/12.0/2025,2000,g 13.5,4.0
# From MPEC 2024-GJ3
C/2023 A1 (Leonard),e,94.7419,318.2640,159.2653,221.2629,0.0002995,0.99170141,0.0000,03/18.5806/2023,2000,g 14.5,4.0
# From MPEC 2023-J95
C/2023 A2 (SWAN),e,94.7060,94.5094,142.4910,405.3183,0.0001208,0.99766875,0.0000,01/20.3636/2023,2000,g 13.5,4.0
# From MPEC 2025-N86
C/2023 A3 (Tsuchinshan-ATLAS),h,09/27.7437/2024,139.1111,21.5765,308.5109,1.000124,0.391528,2000,6.5,3.2
# From MPEC 2024-F34
P/2023 B1 (PANSTARRS),e,14.5883,78.5602,81.7227,7.066228,0.0524714,0.13098071,41.9769,07/12.0/2025,2000,g  5.5,4.0
# From MPEC 2023-XP6
C/2023 B2 (ATLAS),e,40.7666,218.0880,317.3631,597.0741,0.0000676,0.99708492,0.0000,03/10.6177/2023,2000,g 14.5,4.0
# From MPEC 2023-F81
P/2023 B3 (PANSTARRS),e,9.1565,153.9847,240.3846,4.550478,0.1015357,0.12233623,179.7291,07/12.0/2025,2000,g 10.5,4.0
# From MPEC 2025-N86
C/2023 C2 (ATLAS),e,48.3219,301.0047,357.4456,2397,0.0000084,0.99901195,0.0000,11/16.7800/2024,2000,g  7.0,4.0
# From MPEC 2024-D33
C/2023 E1 (ATLAS),e,38.2816,164.5203,105.9470,19.24712,0.0116723,0.94661651,8.6626,07/12.0/2025,2000,g 15.5,4.0
# From MPEC 2023-N01
C/2023 F1 (PANSTARRS),e,131.6952,25.3069,216.7322,244.5322,0.0002578,0.99300587,0.0000,06/28.0724/2023,2000,g 16.0,4.0
# From MPEC 2025-N86
C/2023 F3 (ATLAS),h,02/02.6211/2025,145.9635,109.4659,265.5328,1.003356,5.190796,2000,6.0,4.0
# From MPEC 2025-N86
C/2023 H1 (PANSTARRS),e,21.7829,292.6468,333.7500,755.9505,0.0000474,0.99411661,0.0000,11/28.6260/2024,2000,g  8.5,4.0
# From MPEC 2024-GJ3
C/2023 H2 (Lemmon),e,113.7468,217.0750,150.6901,247.7139,0.0002528,0.99638563,0.0000,10/29.1583/2023,2000,g 14.0,4.0
# From MPEC 2025-N64
C/2023 H3 (PANSTARRS),e,2.4884,55.0916,193.2554,13.61687,0.0196150,0.61581254,9.9992,07/12.0/2025,2000,g 10.0,4.0
# From MPEC 2023-SQ0
A/2023 H4,e,76.5679,230.8265,65.0168,141.6104,0.0005849,0.98499991,0.0000,08/08.6723/2023,2000,g 18.0,2.0
# From MPEC 2025-N86
C/2023 H5 (Lemmon),h,06/30.2891/2025,97.8553,159.4783,60.1013,1.000468,4.312591,2000,7.0,4.0
# From MPEC 2024-UA9
P/2023 JN16 (Lemmon),e,3.7020,11.8698,353.2332,2.696170,0.2226297,0.14700087,42.9991,07/12.0/2025,2000,g 14.0,4.0
# From MPEC 2024-GJ3
C/2023 K1 (ATLAS),e,137.9976,223.6981,337.4176,616.2325,0.0000644,0.99669161,0.0000,09/07.5587/2023,2000,g 13.0,4.0
# From MPEC 2023-N01
P/2023 M1 (PANSTARRS),e,12.2889,216.8599,79.7002,6.840915,0.0550849,0.58678239,31.7119,07/12.0/2025,2000,g 13.5,4.0
# From MPEC 2024-TD8
P/2023 M2 (PANSTARRS),e,19.7265,83.2512,243.5147,5.581844,0.0747373,0.36996577,53.4609,07/12.0/2025,2000,g 12.5,4.0
# From MPEC 2024-TP3
P/2023 M4 (ATLAS),e,7.5919,296.2829,320.5095,5.446120,0.0775485,0.27893054,91.9281,07/12.0/2025,2000,g  7.5,4.0
# From MPEC 2024-MB8
C/2023 P1 (Nishimura),e,132.4780,66.8301,116.2487,56.38562,0.0023278,0.99602082,0.0000,09/17.6148/2023,2000,g 10.0,4.0
# From MPEC 2025-MC0
C/2023 Q1 (PANSTARRS),h,12/01.1245/2024,36.6451,7.1237,84.4185,1.004952,2.575816,2000,10.0,4.0
# From MPEC 2024-N80
C/2023 Q2 (PANSTARRS),e,104.0619,92.6799,171.6890,343.4202,0.0001549,0.99065564,0.0000,06/23.9373/2024,2000,g 11.5,4.0
# From MPEC 2025-N86
C/2023 R1 (PANSTARRS),h,04/13.4712/2026,149.3168,62.5627,144.2720,1.002249,3.569859,2000,6.0,4.0
# From MPEC 2024-L77
C/2023 R2 (PANSTARRS),h,08/12.1621/2024,30.6896,188.8973,337.3143,1.000286,0.905067,2000,10.5,4.0
# From MPEC 2023-UR6
A/2023 R3,e,12.0803,347.3396,86.9469,721.5314,0.0000509,0.99811682,0.0000,12/18.1782/2023,2000,g 20.0,2.0
# From MPEC 2024-YC7
C/2023 RN3 (ATLAS),e,10.3513,207.0638,130.6168,10.16910,0.0303935,0.49053298,27.4597,07/12.0/2025,2000,g  7.5,4.0
# From MPC184411
C/2023 RS61,e,19.9448,347.0213,119.4160,11.89903,0.0240125,0.32786401,330.2656,07/12.0/2025,2000,g  6.8,4.0
# From MPEC 2025-MC0
P/2023 S1 (PANSTARRS),e,9.1578,317.2903,180.3074,3.843831,0.1307849,0.31845958,18.0248,07/12.0/2025,2000,g 11.5,4.0
# From MPEC 2023-XP6
C/2023 S2 (ATLAS),e,19.6536,229.4573,78.9586,164.6076,0.0004667,0.99354992,0.0000,10/15.2965/2023,2000,g 15.0,4.0
# From MPEC 2024-P23
C/2023 S3 (Lemmon),e,140.4931,233.8224,281.5297,28.42096,0.0065050,0.97082261,0.0000,01/19.6500/2024,2000,g 16.0,4.0
# From MPEC 2024-BE0
P/2023 T1 (PANSTARRS),e,6.6123,249.5762,202.8654,4.225751,0.1134614,0.33321440,47.1023,07/12.0/2025,2000,g 14.0,4.0
# From MPEC 2024-GJ3
C/2023 T2 (Borisov),e,48.5905,317.5264,111.2172,223.8189,0.0002943,0.99108056,0.0000,12/22.7423/2023,2000,g 14.5,4.0
# From MPEC 2025-N86
C/2023 T3 (Fuls),e,27.2213,246.0019,302.8478,862.5322,0.0000389,0.99588616,0.0000,01/25.3571/2025,2000,g  8.5,4.0
# From MPEC 2025-MC0
C/2023 TD22 (Lemmon),e,170.4898,5.5649,32.5417,48.35645,0.0029310,0.95126481,0.8755,07/12.0/2025,2000,g 12.5,4.0
# From MPEC 2025-N86
C/2023 U1 (Fuls),e,108.1460,305.8036,255.6463,2642,0.0000073,0.99811754,0.0000,10/12.9386/2024,2000,g  8.0,4.0
# From MPEC 2025-N86
C/2023 V1 (Lemmon),h,07/13.0452/2025,102.0136,15.0429,103.3154,1.000404,5.092586,2000,8.5,4.0
# From MPC184411
P/2023 V2 (PANSTARRS),e,9.8884,95.4743,330.5168,7.219426,0.0508101,0.57002612,26.6419,07/12.0/2025,2000,g 13.5,4.0
# From MPEC 2024-A43
C/2023 V3 (PANSTARRS),e,40.6976,91.2917,291.8345,12.83645,0.0214307,0.65021863,15.1850,07/12.0/2025,2000,g 11.5,4.0
# From MPEC 2025-MC0
C/2023 V4 (Camarasa-Duszanowicz),h,05/30.3945/2024,67.1250,66.3270,50.8705,1.001170,1.121909,2000,12.0,4.0
# From MPEC 2024-GJ3
C/2023 V5 (Leonard),h,12/13.9098/2023,73.5482,31.5147,56.9690,1.009428,0.846315,2000,21.5,4.0
# From MPEC 2025-A40
P/2023 V6 (PANSTARRS),e,3.9727,189.6298,192.4165,5.293594,0.0809241,0.17546634,77.1949,07/12.0/2025,2000,g 11.5,4.0
# From MPEC 2024-GJ3
C/2023 X1 (Leonard),e,110.5888,136.9907,321.4686,155.7308,0.0005072,0.99389244,0.0000,10/17.9650/2023,2000,g 13.5,3.2
# From MPEC 2025-MC0
C/2023 X2 (Lemmon),h,12/28.2116/2025,76.9819,66.3026,64.7695,1.000062,5.088713,2000,8.5,3.2
# From MPEC 2024-A43
P/2023 X3 (PANSTARRS),e,4.4833,62.0139,40.8708,4.245881,0.1126555,0.28618250,50.2265,07/12.0/2025,2000,g 15.5,4.0
# From MPC184411
C/2023 X4 (Hogan),e,11.5934,28.7697,100.5929,9.922315,0.0315344,0.63128888,13.0216,07/12.0/2025,2000,g 12.0,4.0
# From MPEC 2024-DA2
C/2023 X7 (PANSTARRS),h,05/15.2418/2025,69.0960,119.1981,354.4034,1.002371,4.820352,2000,9.0,4.0
# From MPEC 2024-JU4
P/2023 Y1 (Gibbs),e,6.3839,78.8561,51.4795,3.750400,0.1357025,0.44537123,80.0740,07/12.0/2025,2000,g 17.0,4.0
# From MPEC 2025-A40
P/2023 Y2 (Gibbs),e,6.9926,79.2291,16.9047,3.747360,0.1358676,0.39227073,95.3634,07/12.0/2025,2000,g 15.5,4.0
# From MPEC 2025-MC0
C/2024 A1 (ATLAS),h,06/13.6532/2025,94.4720,112.1349,353.3012,1.002587,3.875283,2000,7.0,4.0
# From MPC182881
C/2024 A2 (ATLAS),e,119.1141,78.1648,295.4920,32.25746,0.0053797,0.94173845,2.3628,07/12.0/2025,2000,g 12.5,4.0
# From MPEC 2025-N86
C/2024 B1 (Lemmon),h,10/07.7220/2024,70.9030,79.1882,66.2179,1.001025,1.633811,2000,13.0,4.0
# From MPEC 2025-A40
C/2024 B2 (Lemmon),e,99.8701,294.3863,130.3342,1859,0.0000123,0.99780645,0.0000,10/05.8084/2023,2000,g 11.5,4.0
# From MPEC 2025-N64
C/2024 C1 (PANSTARRS),e,14.2269,83.8095,94.4901,10.58281,0.0286288,0.58301436,9.0159,07/12.0/2025,2000,g 11.5,4.0
# From MPEC 2024-JU4
C/2024 C2 (PANSTARRS),e,27.2844,66.4459,87.5759,16.22878,0.0150756,0.44596033,1.8500,07/12.0/2025,2000,g  6.0,4.0
# From MPC184412
C/2024 C3 (PANSTARRS),e,22.4544,359.7056,159.6920,11.66850,0.0247276,0.42468569,15.1139,07/12.0/2025,2000,g  9.0,4.0
# From MPEC 2024-Q20
C/2024 C4 (ATLAS),e,79.2829,220.6705,321.4976,83.41818,0.0012936,0.98237230,0.0000,01/30.1903/2024,2000,g 14.5,4.0
# From MPEC 2025-MC0
C/2024 D1 (Lemmon),e,132.4498,179.6611,125.7779,9548,0.0000011,0.99929903,0.0000,12/03.4022/2027,2000,g  7.3,4.0
# From MPEC 2025-N86
C/2024 E1 (Wierzchos),h,01/20.7666/2026,75.2391,108.0806,243.6328,1.000064,0.565992,2000,7.0,4.0
# From MPEC 2024-JU4
